[{"OBJECT_NAME":"STARLINK-36052","OBJECT_ID":"2025-270T","EPOCH":"2026-03-08T16:55:25.747968","MEAN_MOTION":15.27576761,"ECCENTRICITY":1.786e-5,"INCLINATION":43.0007,"RA_OF_ASC_NODE":61.8777,"ARG_OF_PERICENTER":336.7746,"MEAN_ANOMALY":23.3097,"EPHEMERIS_TYPE":0,"CLASSIFICATION_TYPE":"U","NORAD_CAT_ID":66605,"ELEMENT_SET_NO":999,"REV_AT_EPOCH":1755,"BSTAR":0.00098873896,"MEAN_MOTION_DOT":0.00027043,"MEAN_MOTION_DDOT":0},{"OBJECT_NAME":"TRANSPORTER-1 OBJECT Z","OBJECT_ID":"2021-006Z","EPOCH":"2026-03-09T22:55:57.522432","MEAN_MOTION":15.30965056,"ECCENTRICITY":0.00100878,"INCLINATION":97.2377,"RA_OF_ASC_NODE":113.4736,"ARG_OF_PERICENTER":179.6869,"MEAN_ANOMALY":180.438,"EPHEMERIS_TYPE":0,"CLASSIFICATION_TYPE":"U","NORAD_CAT_ID":47436,"ELEMENT_SET_NO":999,"REV_AT_EPOCH":28420,"BSTAR":0.00024088983,"MEAN_MOTION_DOT":7.143e-5,"MEAN_MOTION_DDOT":0}]
